{"version": 0.6, "generator": "Overpass API 0.7.61.5 4133829e", "osm3s": {"timestamp_osm_base": "2023-12-23T09:15:21Z", "copyright": "The data included in this document is from www.openstreetmap.org. The data is made available under ODbL."}, "elements": [{"type": "node", "id": 768123302, "lat": -0.0989971, "lon": 34.7501787, "tags": {"amenity": "restaurant", "name": "Laughing Budhaa Cafe"}}, {"type": "node", "id": 768123559, "lat": -0.0997375, "lon": 34.7503101, "tags": {"amenity": "restaurant", "name": "Grill House"}}, {"type": "node", "id": 2347271606, "lat": -0.097802, "lon": 34.7625266}, {"type": "node", "id": 2347271608, "lat": -0.097952, "lon": 34.7623542}, {"type": "node", "id": 2347271612, "lat": -0.0980274, "lon": 34.7624239}, {"type": "node", "id": 2347271618, "lat": -0.0981945, "lon": 34.7621316}, {"type": "node", "id": 2347271620, "lat": -0.0982536, "lon": 34.762186}, {"type": "node", "id": 2347271626, "lat": -0.0983602, "lon": 34.7630276}, {"type": "node", "id": 2347271628, "lat": -0.0984044, "lon": 34.7620284}, {"type": "node", "id": 2347271630, "lat": -0.0984723, "lon": 34.7617945}, {"type": "node", "id": 2347271632, "lat": -0.0985144, "lon": 34.7628795}, {"type": "node", "id": 2347271638, "lat": -0.0988358, "lon": 34.7624454}, {"type": "node", "id": 2347271639, "lat": -0.0989872, "lon": 34.762284}, {"type": "node", "id": 2676713297, "lat": -0.1225604, "lon": 34.744636, "tags": {"addr:city": "Kisumu", "addr:street": "Harambee Road", "amenity": "restaurant", "name": "Kisumu Yacht Club restaurant"}}, {"type": "node", "id": 2766414687, "lat": -0.1058453, "lon": 34.7518842}, {"type": "node", "id": 2766414688, "lat": -0.1059067, "lon": 34.7519067}, {"type": "node", "id": 2766414689, "lat": -0.1058822, "lon": 34.7519732}, {"type": "node", "id": 2766414690, "lat": -0.1058209, "lon": 34.7519506}, {"type": "node", "id": 3264426900, "lat": -0.1373276, "lon": 34.7391664}, {"type": "node", "id": 3264426901, "lat": -0.1374618, "lon": 34.7391327}, {"type": "node", "id": 3264426902, "lat": -0.1375005, "lon": 34.7392869}, {"type": "node", "id": 3264426903, "lat": -0.1373664, "lon": 34.7393206}, {"type": "node", "id": 3264435034, "lat": -0.1116597, "lon": 34.7592667}, {"type": "node", "id": 3264435035, "lat": -0.1117416, "lon": 34.759351}, {"type": "node", "id": 3264435036, "lat": -0.1117782, "lon": 34.7593155}, {"type": "node", "id": 3264435037, "lat": -0.1117276, "lon": 34.7592635}, {"type": "node", "id": 3264435038, "lat": -0.1117066, "lon": 34.7592839}, {"type": "node", "id": 3264435039, "lat": -0.1116752, "lon": 34.7592516}, {"type": "node", "id": 3264444625, "lat": -0.1023169, "lon": 34.7571028}, {"type": "node", "id": 3264444626, "lat": -0.1026374, "lon": 34.7570535}, {"type": "node", "id": 3264444627, "lat": -0.1026581, "lon": 34.75722}, {"type": "node", "id": 3264444628, "lat": -0.102339, "lon": 34.7572728}, {"type": "node", "id": 3291226040, "lat": -0.0993025, "lon": 34.7500066, "tags": {"amenity": "restaurant", "cuisine": "indian", "name": "Gopala"}}, {"type": "node", "id": 3291226181, "lat": -0.0992378, "lon": 34.7497772}, {"type": "node", "id": 3291226182, "lat": -0.0992073, "lon": 34.7498341}, {"type": "node", "id": 3291226183, "lat": -0.0991849, "lon": 34.7498239}, {"type": "node", "id": 3291226184, "lat": -0.0989288, "lon": 34.7503504}, {"type": "node", "id": 3291226185, "lat": -0.0982742, "lon": 34.7500557}, {"type": "node", "id": 3291226186, "lat": -0.0984958, "lon": 34.7495881}, {"type": "node", "id": 3291226187, "lat": -0.0986605, "lon": 34.7495495}, {"type": "node", "id": 3291226188, "lat": -0.0986808, "lon": 34.7495068}, {"type": "node", "id": 3291241629, "lat": -0.1043806, "lon": 34.7550846, "tags": {"amenity": "restaurant", "cuisine": "regional", "name": "The Family Kitchen", "website": "https://www.facebook.com/thefamilykitchen"}}, {"type": "node", "id": 3291255926, "lat": -0.1253104, "lon": 34.7535577, "tags": {"name": "Kiosk", "shop": "convenience"}}, {"type": "node", "id": 3291258371, "lat": -0.125057, "lon": 34.7536201, "tags": {"name": "Kiosk", "shop": "convenience"}}, {"type": "node", "id": 3291258372, "lat": -0.1239009, "lon": 34.7533096, "tags": {"name": "Kiosk", "shop": "convenience"}}, {"type": "node", "id": 3291258373, "lat": -0.1227416, "lon": 34.7529361, "tags": {"name": "Kiosk", "shop": "convenience"}}, {"type": "node", "id": 3292348350, "lat": -0.1044402, "lon": 34.7523913, "tags": {"amenity": "restaurant", "cuisine": "indian", "name": "Haandi"}}, {"type": "node", "id": 3292348504, "lat": -0.1033986, "lon": 34.7557447, "tags": {"amenity": "restaurant", "name": "Chicken Palace"}}, {"type": "node", "id": 3292349905, "lat": -0.1003493, "lon": 34.7603759, "tags": {"amenity": "restaurant", "cuisine": "regional", "name": "Hangover Hotel"}}, {"type": "node", "id": 3292350044, "lat": -0.0988868, "lon": 34.7622724, "tags": {"addr:city": "Kisumu", "addr:street": "Jomo Kenyatta Highway", "amenity": "bar", "name": "Buddy's Bar & Grill"}}, {"type": "node", "id": 3296432565, "lat": -0.1219207, "lon": 34.7533609}, {"type": "node", "id": 3296432566, "lat": -0.122049, "lon": 34.7534441}, {"type": "node", "id": 3296432567, "lat": -0.1219526, "lon": 34.7535874}, {"type": "node", "id": 3296432568, "lat": -0.1218393, "lon": 34.7535025}, {"type": "node", "id": 3310767863, "lat": -0.1000268, "lon": 34.7538354}, {"type": "node", "id": 3310767864, "lat": -0.1002169, "lon": 34.7540234}, {"type": "node", "id": 3310767865, "lat": -0.1003409, "lon": 34.7539045}, {"type": "node", "id": 3310767866, "lat": -0.1001409, "lon": 34.753728}, {"type": "node", "id": 3310858816, "lat": -0.1026392, "lon": 34.7567407}, {"type": "node", "id": 3310858817, "lat": -0.1029536, "lon": 34.757035}, {"type": "node", "id": 3310858818, "lat": -0.1028174, "lon": 34.7571804}, {"type": "node", "id": 3310858819, "lat": -0.1025031, "lon": 34.756886}, {"type": "node", "id": 3310858822, "lat": -0.1024539, "lon": 34.7570818}, {"type": "node", "id": 3310858824, "lat": -0.1027046, "lon": 34.7564574}, {"type": "node", "id": 3310858825, "lat": -0.1029393, "lon": 34.7562207}, {"type": "node", "id": 3310858826, "lat": -0.1030769, "lon": 34.75636}, {"type": "node", "id": 3310858827, "lat": -0.1028423, "lon": 34.7565939}, {"type": "node", "id": 3310858830, "lat": -0.1028743, "lon": 34.7565647}, {"type": "node", "id": 3834757804, "lat": -0.1048388, "lon": 34.7529084, "tags": {"name": "Shivling", "shop": "supermarket"}}, {"type": "node", "id": 3883986363, "lat": -0.1398603, "lon": 34.7393553}, {"type": "node", "id": 3883986364, "lat": -0.1399704, "lon": 34.7394395}, {"type": "node", "id": 3883986365, "lat": -0.1399029, "lon": 34.7395279}, {"type": "node", "id": 3883986366, "lat": -0.1397927, "lon": 34.7394438}, {"type": "node", "id": 3883991573, "lat": -0.144469, "lon": 34.7367099}, {"type": "node", "id": 3883991574, "lat": -0.1444832, "lon": 34.7367885}, {"type": "node", "id": 3883991575, "lat": -0.1445624, "lon": 34.7367742}, {"type": "node", "id": 3883991576, "lat": -0.1445482, "lon": 34.7366956}, {"type": "node", "id": 3883991585, "lat": -0.1444758, "lon": 34.7367534}, {"type": "node", "id": 3917088915, "lat": -0.10032, "lon": 34.753888}, {"type": "node", "id": 3932628783, "lat": -0.092569, "lon": 34.7663974}, {"type": "node", "id": 3932628784, "lat": -0.0925695, "lon": 34.7664794}, {"type": "node", "id": 3932628785, "lat": -0.0926098, "lon": 34.7664322}, {"type": "node", "id": 3932628786, "lat": -0.0926195, "lon": 34.7663382}, {"type": "node", "id": 3932628789, "lat": -0.0926436, "lon": 34.7665426}, {"type": "node", "id": 3932628794, "lat": -0.0927344, "lon": 34.7664362}, {"type": "node", "id": 3946464847, "lat": -0.0915281, "lon": 34.7571177}, {"type": "node", "id": 3946464853, "lat": -0.0916666, "lon": 34.7569614}, {"type": "node", "id": 3946464966, "lat": -0.0919841, "lon": 34.7575297}, {"type": "node", "id": 3946464977, "lat": -0.0921315, "lon": 34.7573734}, {"type": "node", "id": 3977943381, "lat": -0.0981223, "lon": 34.7622178}, {"type": "node", "id": 3977943382, "lat": -0.0981738, "lon": 34.7622661}, {"type": "node", "id": 3977943383, "lat": -0.0983237, "lon": 34.7619531}, {"type": "node", "id": 3977943385, "lat": -0.0986253, "lon": 34.7625933}, {"type": "node", "id": 3977943386, "lat": -0.0987976, "lon": 34.7624109}, {"type": "node", "id": 4077203884, "lat": -0.1070349, "lon": 34.7671307}, {"type": "node", "id": 4077204096, "lat": -0.1070874, "lon": 34.767278}, {"type": "node", "id": 4077204104, "lat": -0.1071204, "lon": 34.7671002}, {"type": "node", "id": 4077204113, "lat": -0.1071729, "lon": 34.7672475}, {"type": "node", "id": 4077204131, "lat": -0.1072711, "lon": 34.7676701}, {"type": "node", "id": 4077204132, "lat": -0.1072843, "lon": 34.7677152}, {"type": "node", "id": 4077204142, "lat": -0.1073533, "lon": 34.7676461}, {"type": "node", "id": 4077204144, "lat": -0.1073665, "lon": 34.7676912}, {"type": "node", "id": 4080477152, "lat": -0.1178996, "lon": 34.7590684}, {"type": "node", "id": 4080477157, "lat": -0.1179362, "lon": 34.7590123}, {"type": "node", "id": 4080477158, "lat": -0.1179559, "lon": 34.7590251}, {"type": "node", "id": 4080477160, "lat": -0.1179991, "lon": 34.758959}, {"type": "node", "id": 4080477175, "lat": -0.1181538, "lon": 34.7592343}, {"type": "node", "id": 4080478595, "lat": -0.1182336, "lon": 34.7591121}, {"type": "node", "id": 4165420899, "lat": -0.0985311, "lon": 34.7517827, "tags": {"addr:city": "Kisumu", "addr:postcode": "40100", "addr:street": "Paul Mbuya Road", "amenity": "cafe", "cuisine": "international", "internet_access": "wlan", "name": "Boston", "smoking": "outside"}}, {"type": "node", "id": 4409431697, "lat": -0.1064098, "lon": 34.7531322, "tags": {"amenity": "restaurant", "name": "The Mixed Grill House", "name:en": "The Mixed Grill House"}}, {"type": "node", "id": 4409431911, "lat": -0.1061814, "lon": 34.7533667, "tags": {"addr:city": "Kisumu", "addr:street": "Achieng Oneko Road", "amenity": "restaurant", "name": "Kisumu Fried Chicken Inn (KFC)"}}, {"type": "node", "id": 4409431912, "lat": -0.0999659, "lon": 34.7504128, "tags": {"amenity": "bar", "name": "Ramogi bar & restaurant", "name:en": "Ramogi bar & restaurant"}}, {"type": "node", "id": 4620811493, "lat": -0.1183397, "lon": 34.7464164, "tags": {"name": "street shop", "name:en": "street shop", "shop": "convenience"}}, {"type": "node", "id": 5342054322, "lat": -0.0832203, "lon": 34.7767421, "tags": {"addr:street": "Kibos Road", "amenity": "cafe", "name": "Sweet Melon Cafe"}}, {"type": "node", "id": 6119221687, "lat": -0.1275658, "lon": 34.7428501, "tags": {"addr:city": "Kisumu", "addr:street": "Harambee Road", "amenity": "restaurant", "name": "Le Pearl Hotel"}}, {"type": "node", "id": 6123274409, "lat": -0.1070418, "lon": 34.7521937, "tags": {"addr:city": "Kisumu", "addr:street": "Achieng Oneko Road", "amenity": "cafe", "cuisine": "coffee_shop", "indoor_seating": "yes", "name": "Java House - West End Mall, Kisumu", "outdoor_seating": "yes", "website": "https://javahouseafrica.com/"}}, {"type": "node", "id": 6123274413, "lat": -0.1060833, "lon": 34.7527846}, {"type": "node", "id": 6123274414, "lat": -0.1057118, "lon": 34.753167}, {"type": "node", "id": 6123274415, "lat": -0.1060764, "lon": 34.7535289}, {"type": "node", "id": 6123274420, "lat": -0.1064479, "lon": 34.7531423}, {"type": "node", "id": 6130469290, "lat": -0.1023841, "lon": 34.7522973, "tags": {"addr:city": "Kisumu", "addr:street": "Oginga Odinga Road", "amenity": "restaurant", "name": "Roan Rooftop Bar and Restaurant"}}, {"type": "node", "id": 6130562031, "lat": -0.0986808, "lon": 34.7502823, "tags": {"addr:city": "Kisumu", "addr:street": "Oginga Odinga Road", "amenity": "cafe", "name": "Al-Noor Cafeteria"}}, {"type": "node", "id": 6130562048, "lat": -0.0985894, "lon": 34.7530723, "tags": {"addr:city": "Kisumu", "addr:street": "Ogada Street", "amenity": "pub", "name": "Ram XB Pub"}}, {"type": "node", "id": 6286699485, "lat": -0.1049343, "lon": 34.7481527, "tags": {"addr:city": "Kisumu", "amenity": "bar", "name": "Railways Club"}}, {"type": "node", "id": 6370401185, "lat": -0.0976678, "lon": 34.7530996, "tags": {"addr:city": "Kisumu", "addr:street": "Odera Street", "amenity": "restaurant", "name": "Mahfudh Ashur"}}, {"type": "node", "id": 6763418026, "lat": -0.1104454, "lon": 34.7490874, "tags": {"addr:street": "Amoth Owira Road", "leisure": "fitness_centre", "name": "Jeff's Fitness Centre", "opening_hours": "Mo-Fr 06:00-21:00; Sa 07:00-19:00", "website": "https://www.facebook.com/jeffs.fitness.centre/"}}, {"type": "node", "id": 6847325751, "lat": -0.073823, "lon": 34.7814492}, {"type": "node", "id": 6847325752, "lat": -0.0739973, "lon": 34.7814456}, {"type": "node", "id": 6847325753, "lat": -0.0739999, "lon": 34.7815735}, {"type": "node", "id": 6847325754, "lat": -0.0738256, "lon": 34.781577}, {"type": "node", "id": 6848650941, "lat": -0.0832527, "lon": 34.774618}, {"type": "node", "id": 6848650942, "lat": -0.0827295, "lon": 34.7748423}, {"type": "node", "id": 6848650943, "lat": -0.0827514, "lon": 34.7748934}, {"type": "node", "id": 6848650944, "lat": -0.0831805, "lon": 34.7749028}, {"type": "node", "id": 6848650945, "lat": -0.0832383, "lon": 34.7747375}, {"type": "node", "id": 6848650956, "lat": -0.0831838, "lon": 34.7747546}, {"type": "node", "id": 6851440464, "lat": -0.1024953, "lon": 34.7523456, "tags": {"addr:city": "Kisumu", "addr:street": "Oginga Odinga Road", "name": "Quick mart", "payment:account_cards": "yes", "payment:american_express": "yes", "payment:cash": "yes", "payment:coins": "yes", "payment:mastercard": "yes", "shop": "supermarket"}}, {"type": "node", "id": 6966453732, "lat": -0.0925368, "lon": 34.7634589, "tags": {"addr:city": "Kisumu", "addr:street": "Ondiek Highway", "amenity": "bar", "name": "Gecko Club"}}, {"type": "node", "id": 7174257286, "lat": -0.0982738, "lon": 34.7622621, "tags": {"addr:city": "Kisumu", "addr:street": "Jomo Kenyatta Highway", "amenity": "cafe", "name": "Java House"}}, {"type": "node", "id": 7181814601, "lat": -0.1071408, "lon": 34.7705865, "tags": {"level": "0", "name": "Naivas Food Market", "opening_hours": "08:30-20:30", "shop": "supermarket", "website": "https://naivas.online/", "wheelchair": "yes"}}, {"type": "node", "id": 7227297575, "lat": -0.0731658, "lon": 34.6625641, "tags": {"addr:city": "Kisumu", "addr:street": "Kisumu-Busia Road", "amenity": "restaurant", "name": "Wayside"}}, {"type": "node", "id": 7227297581, "lat": -0.0762043, "lon": 34.7285586, "tags": {"addr:city": "Kisumu", "addr:street": "Kisumu-Busia Road", "amenity": "pub", "name": "Alfros"}}, {"type": "node", "id": 7227297583, "lat": -0.1036576, "lon": 34.7523476, "tags": {"addr:city": "Kisumu", "addr:street": "New Station Road", "amenity": "pub", "name": "Willis Lounge"}}, {"type": "node", "id": 7227332089, "lat": -0.1054219, "lon": 34.7589791, "tags": {"addr:city": "Kisumu", "addr:street": "Nzoia Road", "amenity": "restaurant", "name": "Big Lalu's"}}, {"type": "node", "id": 7227432035, "lat": -0.1171823, "lon": 34.7589248}, {"type": "node", "id": 7227432036, "lat": -0.1173929, "lon": 34.7590906}, {"type": "node", "id": 7227432037, "lat": -0.1170949, "lon": 34.7594691}, {"type": "node", "id": 7227432038, "lat": -0.1168844, "lon": 34.7593034}, {"type": "node", "id": 7227559253, "lat": -0.1172203, "lon": 34.7592547, "tags": {"addr:city": "Kisumu", "addr:street": "Awour Otieno Road", "name": "Quickmart Nyalenda", "operator:description": "Tumaini", "operator:type": "private", "shop": "supermarket"}}, {"type": "node", "id": 7229869113, "lat": -0.116943, "lon": 34.7875621, "tags": {"addr:city": "Kisumu", "addr:street": "Nairobi Road", "name": "Choppies", "shop": "supermarket"}}, {"type": "node", "id": 7229869114, "lat": -0.107084, "lon": 34.7710802, "tags": {"addr:city": "Kisumu", "amenity": "restaurant", "cuisine": "indian", "name": "Garam Masala", "phone": "+254709752713"}}, {"type": "node", "id": 7229869117, "lat": -0.1003997, "lon": 34.7676538, "tags": {"addr:city": "Kisumu", "addr:street": "Ondiek Highway", "amenity": "restaurant", "name": "Stadview"}}, {"type": "node", "id": 7229869128, "lat": -0.0835541, "lon": 34.7754727, "tags": {"addr:city": "Kisumu", "addr:street": "Kibos Road", "name": "Quickmart- Kondele", "shop": "supermarket", "website": "https://quickmart.co.ke/"}}, {"type": "node", "id": 7229869129, "lat": -0.0819533, "lon": 34.7751694, "tags": {"addr:city": "Kisumu", "addr:street": "Kakamega Road", "name": "Shivling", "shop": "supermarket"}}, {"type": "node", "id": 7229869130, "lat": -0.0652176, "lon": 34.7739949}, {"type": "node", "id": 7229869131, "lat": -0.0652665, "lon": 34.7741036}, {"type": "node", "id": 7229869132, "lat": -0.0651828, "lon": 34.7752171}, {"type": "node", "id": 7229869133, "lat": -0.0663428, "lon": 34.7752071}, {"type": "node", "id": 7229869134, "lat": -0.0663006, "lon": 34.7742672}, {"type": "node", "id": 7229869135, "lat": -0.0653543, "lon": 34.7739206}, {"type": "node", "id": 7229869136, "lat": -0.065342, "lon": 34.7739805}, {"type": "node", "id": 7230512293, "lat": -0.0473291, "lon": 34.7638761, "tags": {"amenity": "restaurant", "name": "Miniciti"}}, {"type": "node", "id": 7232539056, "lat": -0.1003158, "lon": 34.7619557}, {"type": "node", "id": 7232539057, "lat": -0.1003158, "lon": 34.7618957}, {"type": "node", "id": 7232539058, "lat": -0.1006096, "lon": 34.7616176}, {"type": "node", "id": 7232539059, "lat": -0.1008213, "lon": 34.7618546}, {"type": "node", "id": 7232539060, "lat": -0.1008465, "lon": 34.7619746}, {"type": "node", "id": 7232539061, "lat": -0.1007202, "lon": 34.7621137}, {"type": "node", "id": 7232539062, "lat": -0.1004832, "lon": 34.7621611}, {"type": "node", "id": 7807828961, "lat": -0.0661251, "lon": 34.7742751}, {"type": "node", "id": 7807828962, "lat": -0.0661196, "lon": 34.7741546}, {"type": "node", "id": 7807828963, "lat": -0.0662054, "lon": 34.7741507}, {"type": "node", "id": 7807828964, "lat": -0.0662037, "lon": 34.7741149}, {"type": "node", "id": 7807828965, "lat": -0.0662811, "lon": 34.7741111}, {"type": "node", "id": 7807828966, "lat": -0.0662696, "lon": 34.7738759}, {"type": "node", "id": 7807828967, "lat": -0.0652728, "lon": 34.7742486}, {"type": "node", "id": 7807828968, "lat": -0.0652055, "lon": 34.7742514}, {"type": "node", "id": 7807828969, "lat": -0.0652265, "lon": 34.7747381}, {"type": "node", "id": 7807828970, "lat": -0.0651623, "lon": 34.7747408}, {"type": "node", "id": 7807828971, "lat": -0.0658729, "lon": 34.7751874}, {"type": "node", "id": 7807828972, "lat": -0.0658641, "lon": 34.7749831}, {"type": "node", "id": 7807828973, "lat": -0.0657491, "lon": 34.7747235}, {"type": "node", "id": 7807828974, "lat": -0.0657606, "lon": 34.7749876}, {"type": "node", "id": 7807828975, "lat": -0.0656429, "lon": 34.7741909}, {"type": "node", "id": 7807828976, "lat": -0.0656665, "lon": 34.7747272}, {"type": "node", "id": 7807828977, "lat": -0.0660824, "lon": 34.7741715}, {"type": "node", "id": 7807828978, "lat": -0.0661154, "lon": 34.7749179}, {"type": "node", "id": 7807828979, "lat": -0.0659806, "lon": 34.7749239}, {"type": "node", "id": 7807828980, "lat": -0.065994, "lon": 34.7752227}, {"type": "node", "id": 7905369176, "lat": -0.1204952, "lon": 34.7898609, "tags": {"addr:city": "Kisumu", "addr:street": "Kisumu-Busia Road", "amenity": "bar", "name": "Lakers Tavern"}}, {"type": "node", "id": 7931268005, "lat": -0.0476251, "lon": 34.7653556, "tags": {"addr:city": "Kisumu", "addr:street": "Kisumu -Vihiga Road", "amenity": "restaurant", "name": "Miniciti Pub"}}, {"type": "node", "id": 7931268006, "lat": -0.0681377, "lon": 34.7764281, "tags": {"addr:city": "Kisumu", "addr:street": "Kakamega Road", "amenity": "pub", "name": "Mustang Makuti"}}, {"type": "node", "id": 7931268011, "lat": -0.0840235, "lon": 34.7724946, "tags": {"addr:city": "Kisumu", "addr:street": "Bypass Highway", "amenity": "restaurant", "name": "Habesha Ethopian"}}, {"type": "node", "id": 8775897718, "lat": -0.1026425, "lon": 34.7568752, "tags": {"addr:street": "Angawa Avenue", "amenity": "cafe", "name": "CAFENAIVAS", "opening_hours": "Mo-Su 08:00-21:00"}}, {"type": "node", "id": 8814398642, "lat": -0.097065, "lon": 34.7781183, "tags": {"amenity": "bar", "name": "Grand Mullars Bars", "operational_status": "operational", "operator:type": "private"}}, {"type": "node", "id": 8816796434, "lat": -0.0867191, "lon": 34.7808155, "tags": {"name": "Auma Plaza", "operational_status": "operational", "operator:type": "private", "shop": "department_store"}}, {"type": "node", "id": 8816877719, "lat": -0.108175, "lon": 34.7837583, "tags": {"name": "Kasawino", "shop": "convenience"}}, {"type": "node", "id": 8816954037, "lat": -0.0889317, "lon": 34.7769433, "tags": {"amenity": "bar", "name": "Billionaire Pub", "operational_status": "operational", "operator:type": "private"}}, {"type": "node", "id": 8817480921, "lat": -0.0829011, "lon": 34.7763908, "tags": {"amenity": "cafe", "name": "Sweet Melon Cafe", "operational_status": "operational", "operator:type": "private"}}, {"type": "node", "id": 8824043160, "lat": -0.08131, "lon": 34.76533, "tags": {"amenity": "restaurant", "name": "Mama Joy Hotel", "operational_status": "operational", "operator:type": "private"}}, {"type": "node", "id": 8824139711, "lat": -0.0893433, "lon": 34.7589683, "tags": {"amenity": "restaurant", "cuisine": "african", "name": "Shalom hotel", "operational_status": "operational", "operator:type": "private"}}, {"type": "node", "id": 8824253037, "lat": -0.0893867, "lon": 34.7593683, "tags": {"amenity": "restaurant", "cuisine": "african", "name": "Nyar Gem Hotel", "operational_status": "operational", "operator:type": "private"}}, {"type": "node", "id": 8939826217, "lat": -0.0989106, "lon": 34.76195}, {"type": "node", "id": 8939826218, "lat": -0.0991565, "lon": 34.7616736}, {"type": "node", "id": 8939826219, "lat": -0.0992643, "lon": 34.7617651}, {"type": "node", "id": 8939826220, "lat": -0.0992988, "lon": 34.7617183}, {"type": "node", "id": 8939826221, "lat": -0.0993679, "lon": 34.7617813}, {"type": "node", "id": 8939826222, "lat": -0.0993293, "lon": 34.761826}, {"type": "node", "id": 8939826223, "lat": -0.0995366, "lon": 34.7620192}, {"type": "node", "id": 8939826224, "lat": -0.0995732, "lon": 34.7619744}, {"type": "node", "id": 8939826225, "lat": -0.0996322, "lon": 34.7620293}, {"type": "node", "id": 8939826226, "lat": -0.0995936, "lon": 34.7620761}, {"type": "node", "id": 8939826227, "lat": -0.0996952, "lon": 34.7621696}, {"type": "node", "id": 8939826228, "lat": -0.0994045, "lon": 34.7624867}, {"type": "node", "id": 8939826229, "lat": -0.099313, "lon": 34.7623972}, {"type": "node", "id": 8939826230, "lat": -0.0993456, "lon": 34.7623586}, {"type": "node", "id": 8939826231, "lat": -0.0992643, "lon": 34.7622854}, {"type": "node", "id": 8939826232, "lat": -0.0992317, "lon": 34.7623261}, {"type": "node", "id": 8939826233, "lat": -0.0991342, "lon": 34.7622387}, {"type": "node", "id": 8939826234, "lat": -0.0991687, "lon": 34.7622001}, {"type": "node", "id": 8939826235, "lat": -0.0990894, "lon": 34.7621289}, {"type": "node", "id": 8939826236, "lat": -0.0990569, "lon": 34.7621675}, {"type": "node", "id": 8939826237, "lat": -0.0989268, "lon": 34.7620517}, {"type": "node", "id": 8939826238, "lat": -0.0989634, "lon": 34.7620049}, {"type": "node", "id": 9194784035, "lat": -0.071642, "lon": 34.6646823, "tags": {"name": "Desmart Supermarket", "shop": "supermarket"}}, {"type": "node", "id": 10148470879, "lat": -0.0987027, "lon": 34.7626709}, {"type": "node", "id": 10148470880, "lat": -0.0985, "lon": 34.762867}, {"type": "node", "id": 10209497192, "lat": -0.0943275, "lon": 34.7643172}, {"type": "node", "id": 10209497193, "lat": -0.0942565, "lon": 34.764399}, {"type": "node", "id": 10209497194, "lat": -0.0941844, "lon": 34.7643363}, {"type": "node", "id": 10209497195, "lat": -0.0942555, "lon": 34.7642545}, {"type": "node", "id": 10220089805, "lat": -0.1069717, "lon": 34.7694004}, {"type": "node", "id": 10220089806, "lat": -0.1075457, "lon": 34.7694326}, {"type": "node", "id": 10220089807, "lat": -0.107433, "lon": 34.7710312}, {"type": "node", "id": 10220089808, "lat": -0.1063494, "lon": 34.7709615}, {"type": "node", "id": 10220089809, "lat": -0.1063655, "lon": 34.770645}, {"type": "node", "id": 10220089810, "lat": -0.1068751, "lon": 34.7706933}, {"type": "node", "id": 10220089811, "lat": -0.1068751, "lon": 34.7706235}, {"type": "node", "id": 10220089812, "lat": -0.1063655, "lon": 34.7705752}, {"type": "node", "id": 10220089813, "lat": -0.1063869, "lon": 34.7702963}, {"type": "node", "id": 10220089814, "lat": -0.1069019, "lon": 34.7703392}, {"type": "node", "id": 10220089815, "lat": -0.1069127, "lon": 34.7702587}, {"type": "node", "id": 10220089816, "lat": -0.1063869, "lon": 34.7702212}, {"type": "node", "id": 10220091917, "lat": -0.1064191, "lon": 34.7699262}, {"type": "node", "id": 10220091918, "lat": -0.1069287, "lon": 34.7699583}, {"type": "node", "id": 10220091986, "lat": -0.1082382, "lon": 34.771263}, {"type": "node", "id": 10220091987, "lat": -0.1082629, "lon": 34.7713445}, {"type": "node", "id": 10220091988, "lat": -0.1083505, "lon": 34.7713199}, {"type": "node", "id": 10220091989, "lat": -0.108329, "lon": 34.7712307}, {"type": "node", "id": 10220116755, "lat": -0.1077509, "lon": 34.7703988}, {"type": "node", "id": 10220116756, "lat": -0.1077485, "lon": 34.7704902}, {"type": "node", "id": 10220116757, "lat": -0.1080063, "lon": 34.7705016}, {"type": "node", "id": 10220116758, "lat": -0.1080063, "lon": 34.7704121}, {"type": "node", "id": 10559137636, "lat": -0.107056, "lon": 34.751801}, {"type": "node", "id": 10559137637, "lat": -0.1070049, "lon": 34.7518521}, {"type": "node", "id": 10559137638, "lat": -0.1070453, "lon": 34.7518843}, {"type": "node", "id": 10559137639, "lat": -0.1068409, "lon": 34.7520699}, {"type": "node", "id": 10559137640, "lat": -0.1070345, "lon": 34.7522421}, {"type": "node", "id": 10559137641, "lat": -0.1072309, "lon": 34.7520027}, {"type": "node", "id": 10559137642, "lat": -0.1068974, "lon": 34.7520682, "tags": {"branch": "West end- Kisumu", "currency:KSH": "yes", "name": "Chandarana FoodPlus", "organic": "yes", "shop": "supermarket", "stroller": "yes", "website": "https://www.foodplus.co.ke/", "wheelchair": "yes"}}, {"type": "node", "id": 10579023119, "lat": -0.0751572, "lon": 34.7810813, "tags": {"amenity": "pub", "name": "The Inferno Pub"}}, {"type": "node", "id": 10579036231, "lat": -0.0754056, "lon": 34.7812896, "tags": {"leisure": "fitness_centre", "name": "Careys Fitness"}}, {"type": "node", "id": 10588857561, "lat": -0.0927939, "lon": 34.7637053, "tags": {"amenity": "pub", "name": "Blink"}}, {"type": "node", "id": 10588857562, "lat": -0.0927312, "lon": 34.7636679, "tags": {"amenity": "pub", "name": "Neighbours"}}, {"type": "node", "id": 10588857563, "lat": -0.0926572, "lon": 34.7636069, "tags": {"amenity": "pub", "name": "HomePub"}}, {"type": "node", "id": 10676351500, "lat": -0.0796864, "lon": 34.784092, "tags": {"amenity": "pub", "name": "Cosmos bar"}}, {"type": "node", "id": 10898735238, "lat": -0.0983131, "lon": 34.7625655, "tags": {"brand": "Carrefour", "brand:wikidata": "Q217599", "name": "Carrefour", "shop": "supermarket", "website": "https://www.carrefour.ke/mafken/en/"}}, {"type": "node", "id": 10898735239, "lat": -0.0986082, "lon": 34.7622657, "tags": {"brand": "LC Waikiki", "brand:wikidata": "Q3205965", "name": "LC Waikiki", "shop": "clothes"}}, {"type": "node", "id": 10898735243, "lat": -0.098463, "lon": 34.7618688, "tags": {"brand": "Bata", "brand:wikidata": "Q688082", "name": "Bata", "shop": "shoes", "website": "https://thebatacompany.com/"}}, {"type": "node", "id": 10898822429, "lat": -0.1040425, "lon": 34.7524668, "tags": {"name": "Jade Collections", "shop": "clothes", "website": "https://www.jadecollections.co.ke/"}}, {"type": "node", "id": 10898822430, "lat": -0.104131, "lon": 34.7527208, "tags": {"brand": "Carrefour", "brand:wikidata": "Q217599", "name": "Carrefour", "shop": "supermarket", "website": "https://www.carrefour.ke/mafken/en/"}}, {"type": "node", "id": 10904815790, "lat": -0.0932646, "lon": 34.76082, "tags": {"amenity": "bar"}}, {"type": "node", "id": 10904815792, "lat": -0.0932857, "lon": 34.760893, "tags": {"amenity": "restaurant"}}, {"type": "node", "id": 10904818377, "lat": -0.104119, "lon": 34.7531917, "tags": {"brand": "Bata", "brand:wikidata": "Q688082", "name": "Bata", "shop": "shoes", "website": "https://www.bata.com/"}}, {"type": "node", "id": 10904818379, "lat": -0.10278, "lon": 34.7524737, "tags": {"brand": "Bata", "brand:wikidata": "Q688082", "name": "Bata", "shop": "shoes", "website": "https://www.bata.com/"}}, {"type": "node", "id": 10918048839, "lat": -0.1008243, "lon": 34.7515054, "tags": {"name": "A to Z Ltd.", "shop": "clothes"}}, {"type": "node", "id": 10918048841, "lat": -0.1006607, "lon": 34.7514426, "tags": {"amenity": "restaurant", "name": "City Food Court"}}, {"type": "node", "id": 10921245495, "lat": -0.1042203, "lon": 34.752035, "tags": {"name": "Healthy U", "organic": "only", "shop": "supermarket"}}, {"type": "node", "id": 10929341677, "lat": -0.0995173, "lon": 34.7544415, "tags": {"shop": "clothes"}}, {"type": "node", "id": 10929341678, "lat": -0.0994222, "lon": 34.7543662, "tags": {"shop": "clothes"}}, {"type": "node", "id": 10929341679, "lat": -0.099391, "lon": 34.7543361, "tags": {"shop": "clothes"}}, {"type": "node", "id": 10931608141, "lat": -0.078952, "lon": 34.7843248, "tags": {"name": "Boom Mart", "shop": "supermarket"}}, {"type": "node", "id": 10931626861, "lat": -0.102373, "lon": 34.7528601, "tags": {"second_hand": "only", "shop": "clothes"}}, {"type": "node", "id": 10931626862, "lat": -0.1024229, "lon": 34.7528715, "tags": {"second_hand": "only", "shop": "clothes"}}, {"type": "node", "id": 10931626863, "lat": -0.1024813, "lon": 34.7528928, "tags": {"second_hand": "only", "shop": "clothes"}}, {"type": "node", "id": 10931626864, "lat": -0.1025426, "lon": 34.7529085, "tags": {"second_hand": "only", "shop": "clothes"}}, {"type": "node", "id": 10931626865, "lat": -0.1021036, "lon": 34.7528144, "tags": {"second_hand": "only", "shop": "clothes"}}, {"type": "node", "id": 10931626866, "lat": -0.1021649, "lon": 34.7528216, "tags": {"second_hand": "only", "shop": "clothes"}}, {"type": "node", "id": 10931626867, "lat": -0.1022105, "lon": 34.752833, "tags": {"second_hand": "only", "shop": "clothes"}}, {"type": "node", "id": 10931626868, "lat": -0.1022604, "lon": 34.752833, "tags": {"second_hand": "only", "shop": "clothes"}}, {"type": "node", "id": 10931626869, "lat": -0.1026567, "lon": 34.7529698, "tags": {"second_hand": "only", "shop": "clothes"}}, {"type": "node", "id": 10931626870, "lat": -0.1027308, "lon": 34.7529983, "tags": {"second_hand": "only", "shop": "clothes"}}, {"type": "node", "id": 10933936608, "lat": -0.1038252, "lon": 34.7535126, "tags": {"second_hand": "only", "shop": "clothes"}}, {"type": "node", "id": 10933936609, "lat": -0.1039695, "lon": 34.7535739, "tags": {"second_hand": "only", "shop": "clothes"}}, {"type": "node", "id": 10933936610, "lat": -0.1040802, "lon": 34.7536411, "tags": {"second_hand": "only", "shop": "clothes"}}, {"type": "node", "id": 10933997341, "lat": -0.0834489, "lon": 34.7749359, "tags": {"amenity": "restaurant", "name": "Chicken World Restaurant"}}, {"type": "node", "id": 10933997342, "lat": -0.0834134, "lon": 34.7749819, "tags": {"name": "Giama solutions clothing", "shop": "clothes"}}, {"type": "node", "id": 10933997347, "lat": -0.0833423, "lon": 34.7751861, "tags": {"name": "Wise choice Kenya bakeries", "shop": "bakery"}}, {"type": "node", "id": 10933997351, "lat": -0.0833335, "lon": 34.7753028, "tags": {"amenity": "pub", "name": "Ring Road Club"}}, {"type": "node", "id": 10936335494, "lat": -0.0802288, "lon": 34.7833825, "tags": {"shop": "clothes"}}, {"type": "node", "id": 10936347178, "lat": -0.080149, "lon": 34.7844847, "tags": {"second_hand": "only", "shop": "clothes"}}, {"type": "node", "id": 10936384845, "lat": -0.0799635, "lon": 34.7847827, "tags": {"shop": "clothes"}}, {"type": "node", "id": 10936507930, "lat": -0.0746582, "lon": 34.781976, "tags": {"amenity": "restaurant", "name": "flex choma zone"}}, {"type": "node", "id": 10936645859, "lat": -0.1062294, "lon": 34.7529678, "tags": {"brand": "Bata", "brand:wikidata": "Q688082", "name": "Bata", "shop": "shoes"}}, {"type": "node", "id": 10937126143, "lat": -0.1039931, "lon": 34.7574833, "tags": {"amenity": "bar", "name": "Africana Rooftop bar & restaurant"}}, {"type": "node", "id": 10940453073, "lat": -0.0999309, "lon": 34.7544751, "tags": {"shop": "clothes"}}, {"type": "node", "id": 10940453074, "lat": -0.0998688, "lon": 34.754532, "tags": {"shop": "clothes"}}, {"type": "node", "id": 10940498846, "lat": -0.0967801, "lon": 34.7532524, "tags": {"name": "Victoria Bakery", "shop": "bakery"}}, {"type": "node", "id": 10941824764, "lat": -0.0967177, "lon": 34.7533151, "tags": {"amenity": "restaurant", "name": "Mafudh Ashur restaurant"}}, {"type": "node", "id": 10943873314, "lat": -0.0987938, "lon": 34.7520535, "tags": {"name": "Recho Garments", "shop": "clothes"}}, {"type": "node", "id": 10945826775, "lat": -0.0992533, "lon": 34.7542245, "tags": {"shop": "clothes"}}, {"type": "node", "id": 10945842844, "lat": -0.099394, "lon": 34.7542386, "tags": {"shop": "clothes"}}, {"type": "node", "id": 10955740539, "lat": -0.0790846, "lon": 34.7847865, "tags": {"amenity": "bar", "name": "sawasawa bar and grill"}}, {"type": "node", "id": 10976832791, "lat": -0.0996006, "lon": 34.7506769, "tags": {"name": "Blackberry", "shop": "clothes"}}, {"type": "node", "id": 10978530361, "lat": -0.0981704, "lon": 34.7624123, "tags": {"name": "City Walk", "shop": "shoes", "website": "https://citywalk.co.ke/"}}, {"type": "node", "id": 11016540443, "lat": -0.106977, "lon": 34.7708765, "tags": {"amenity": "bar", "name": "Da bar (The Vic)"}}, {"type": "node", "id": 11020660041, "lat": -0.1069887, "lon": 34.7713516, "tags": {"amenity": "restaurant", "name": "Mon Ami"}}, {"type": "node", "id": 11030023270, "lat": -0.1050678, "lon": 34.7530015, "tags": {"brand": "Bata", "brand:wikidata": "Q688082", "name": "Bata", "shop": "shoes"}}, {"type": "node", "id": 11030023275, "lat": -0.1069669, "lon": 34.7521328, "tags": {"shop": "shoes", "website": "https://citywalk.co.ke/"}}, {"type": "node", "id": 11034143944, "lat": -0.1006279, "lon": 34.7531505, "tags": {"name": "marhaba", "operator": "Ola energy", "shop": "convenience"}}, {"type": "node", "id": 11035432657, "lat": -0.083215, "lon": 34.7742485, "tags": {"amenity": "bar", "name": "Joy villa bar & hotel"}}, {"type": "node", "id": 11044596301, "lat": -0.0808029, "lon": 34.7843295, "tags": {"name": "zamani cake suppliers", "shop": "bakery"}}, {"type": "node", "id": 11044596302, "lat": -0.0805829, "lon": 34.7842544, "tags": {"amenity": "pub", "name": "Rose Garden Inn"}}, {"type": "node", "id": 11044596303, "lat": -0.0807673, "lon": 34.7844898, "tags": {"name": "Odhis Jerseys", "shop": "clothes"}}, {"type": "node", "id": 11082995763, "lat": -0.0747438, "lon": 34.7821885, "tags": {"amenity": "bar", "name": "Comfort Station bar"}}, {"type": "node", "id": 11082995765, "lat": -0.0750328, "lon": 34.7814106, "tags": {"shop": "shoes"}}, {"type": "node", "id": 11094246712, "lat": -0.0757603, "lon": 34.7805644, "tags": {"name": "Betty's classic mitumba", "second_hand": "only", "shop": "clothes"}}, {"type": "node", "id": 11094246715, "lat": -0.0758716, "lon": 34.780097, "tags": {"amenity": "bar", "name": "The Furnace Lounge"}}, {"type": "node", "id": 11094246724, "lat": -0.0759038, "lon": 34.7787733, "tags": {"shop": "clothes"}}, {"type": "node", "id": 11155796871, "lat": -0.0652138, "lon": 34.7744446}, {"type": "node", "id": 11166565608, "lat": -0.1034539, "lon": 34.7580197, "tags": {"amenity": "cafe", "name": "Lakeside Coffee"}}, {"type": "node", "id": 11286296969, "lat": -0.1029274, "lon": 34.7523993, "tags": {"name": "Quickmart", "shop": "supermarket"}}, {"type": "way", "id": 225904060, "nodes": [2347271630, 3977943383, 2347271628, 2347271620, 2347271618, 3977943381, 3977943382, 2347271612, 2347271608, 2347271606, 2347271626, 10148470880, 2347271632, 10148470879, 3977943385, 3977943386, 2347271638, 2347271639, 2347271630], "tags": {"addr:city": "Kisumu", "addr:street": "Jomo Kenyatta Highway", "building": "yes", "name": "United Mall", "opening_hours": "24/7", "operator": "United Millers", "shop": "mall", "website": "https://united.co.ke/"}}, {"type": "way", "id": 271692014, "nodes": [2766414687, 2766414688, 2766414689, 2766414690, 2766414687], "tags": {"amenity": "restaurant", "building": "yes", "capacity": "70", "cuisine": "regional", "name": "Eden Cafe", "smoking": "no"}}, {"type": "way", "id": 319946346, "nodes": [3264426900, 3264426901, 3264426902, 3264426903, 3264426900], "tags": {"amenity": "restaurant", "building": "yes", "capacity": "250", "cuisine": "regional", "name": "Dunga Hill Camp", "smoking": "outside", "website": "https://www.facebook.com/dungahillcamp"}}, {"type": "way", "id": 319946824, "nodes": [3264435034, 3264435035, 3264435036, 3264435037, 3264435038, 3264435039, 3264435034], "tags": {"amenity": "restaurant", "building": "yes", "capacity": "50", "cuisine": "regional", "disused": "yes", "disused:amenity": "restaurant", "source": "Bing"}}, {"type": "way", "id": 319947375, "nodes": [3264444625, 3310858822, 3264444626, 3264444627, 3264444628, 3264444625], "tags": {"building": "yes", "name": "Quickmart", "shop": "supermarket", "website": "https://quickmart.co.ke/"}}, {"type": "way", "id": 322353281, "nodes": [3291226181, 3291226182, 3291226183, 3291226184, 3291226185, 3291226186, 3291226187, 3291226188, 3291226181], "tags": {"building": "yes", "name": "Swan Centre", "operator": "United Millers", "shop": "mall"}}, {"type": "way", "id": 322848808, "nodes": [3296432565, 3296432566, 3296432567, 3296432568, 3296432565], "tags": {"amenity": "restaurant", "building": "yes", "cuisine": "regional", "name": "Mama Shika"}}, {"type": "way", "id": 324329717, "nodes": [3310767863, 3310767864, 3310767865, 3917088915, 3310767866, 3310767863], "tags": {"building": "yes", "name": "Mini Mall", "shop": "mall"}}, {"type": "way", "id": 324338970, "nodes": [3310858816, 3310858817, 3310858818, 3310858819, 3310858816], "tags": {"building": "yes", "name": "Navas supermarket", "shop": "supermarket"}}, {"type": "way", "id": 324338975, "nodes": [3310858824, 3310858825, 3310858826, 3310858830, 3310858827, 3310858824], "tags": {"building": "yes", "name": "Khetia's Supermarket", "shop": "supermarket"}}, {"type": "way", "id": 385043657, "nodes": [3883986363, 3883986364, 3883986365, 3883986366, 3883986363], "tags": {"amenity": "pub", "building": "yes"}}, {"type": "way", "id": 385044194, "nodes": [3883991573, 3883991585, 3883991574, 3883991575, 3883991576, 3883991573], "tags": {"amenity": "restaurant", "building": "yes", "capacity": "15", "cuisine": "regional"}}, {"type": "way", "id": 390104583, "nodes": [3932628794, 3932628786, 3932628783, 3932628785, 3932628784, 3932628789, 3932628794], "tags": {"building": "yes", "name": "Hass Mart", "shop": "convenience", "website": "https://hasspetroleum.com/"}}, {"type": "way", "id": 391422797, "nodes": [3946464966, 3946464977, 3946464853, 3946464847, 3946464966], "tags": {"building": "yes", "name": "Sunblest Bakery", "operator": "Mayfair Holdings Ltd.", "shop": "bakery", "website": "https://sunblest.co.ke/about.php"}}, {"type": "way", "id": 405533077, "nodes": [4077204104, 4077203884, 4077204096, 4077204113, 4077204104], "tags": {"building": "yes", "shop": "convenience"}}, {"type": "way", "id": 405533110, "nodes": [4077204131, 4077204132, 4077204144, 4077204142, 4077204131], "tags": {"brand": "Bonjour", "brand:wikidata": "Q110278299", "building": "yes", "name": "Bonjour", "shop": "convenience"}}, {"type": "way", "id": 405911245, "nodes": [4080477152, 4080477175, 4080478595, 4080477160, 4080477158, 4080477157, 4080477152], "tags": {"building": "yes", "name": "Appmatt", "shop": "supermarket"}}, {"type": "way", "id": 653361393, "nodes": [6123274413, 6123274414, 6123274415, 6123274420, 6123274413], "tags": {"addr:city": "Kisumu", "addr:street": "Achieng Oneko Road", "building": "yes", "name": "Tuffoam Mall", "shop": "mall"}}, {"type": "way", "id": 731061670, "nodes": [6847325751, 6847325752, 6847325753, 6847325754, 6847325751], "tags": {"building": "yes", "name": "joymart supermarket", "shop": "supermarket"}}, {"type": "way", "id": 731184622, "nodes": [6848650941, 6848650942, 6848650943, 6848650944, 6848650956, 6848650945, 6848650941], "tags": {"building": "yes", "name": "Ojenge Plaza", "shop": "department_store"}}, {"type": "way", "id": 774643671, "nodes": [7227432035, 7227432036, 7227432037, 7227432038, 7227432035], "tags": {"building": "yes", "name": "Tumaini mall", "shop": "mall"}}, {"type": "way", "id": 774940270, "nodes": [7229869130, 7229869131, 7807828967, 7807828968, 11155796871, 7807828969, 7807828970, 7229869132, 7807828971, 7807828972, 7807828974, 7807828973, 7807828976, 7807828975, 7807828977, 7807828978, 7807828979, 7807828980, 7229869133, 7229869134, 7807828961, 7807828962, 7807828963, 7807828964, 7807828965, 7807828966, 7229869135, 7229869136, 7229869130], "tags": {"addr:city": "Kisumu", "addr:street": "Kakamega Road", "building": "yes", "building:levels": "2", "name": "Lake Basin Mall", "operator": "Lake Basin Development Authority", "shop": "mall"}}, {"type": "way", "id": 775221909, "nodes": [7232539056, 7232539057, 7232539058, 7232539059, 7232539060, 7232539061, 7232539062, 7232539056], "tags": {"building": "yes", "name": "Khetia's Supermarket", "shop": "supermarket", "website": "https://www.khetia.com/"}}, {"type": "way", "id": 966293463, "nodes": [8939826217, 8939826218, 8939826219, 8939826220, 8939826221, 8939826222, 8939826223, 8939826224, 8939826225, 8939826226, 8939826227, 8939826228, 8939826229, 8939826230, 8939826231, 8939826232, 8939826233, 8939826234, 8939826235, 8939826236, 8939826237, 8939826238, 8939826217], "tags": {"building": "yes", "name": "NAIVAS FOODMARKET", "organic": "yes", "payment:cash": "yes", "payment:coins": "yes", "payment:credit_cards": "yes", "payment:debit_cards": "yes", "payment:visa": "yes", "shop": "supermarket", "website": "https://naivas.online/"}}, {"type": "way", "id": 1116257471, "nodes": [10209497195, 10209497194, 10209497193, 10209497192, 10209497195], "tags": {"brand": "Shell", "brand:wikidata": "Q110716465", "building": "yes", "name": "Shell", "shop": "convenience"}}, {"type": "way", "id": 1117437630, "nodes": [10220089805, 10220089806, 10220089807, 10220089808, 10220089809, 10220089810, 10220089811, 10220089812, 10220089813, 10220089814, 10220089815, 10220089816, 10220091917, 10220091918, 10220089805], "tags": {"building": "yes", "building:levels": "1", "name": "Mega City Mall", "shop": "mall"}}, {"type": "way", "id": 1117437637, "nodes": [10220091986, 10220091987, 10220091988, 10220091989, 10220091986], "tags": {"building": "yes", "shop": "convenience"}}, {"type": "way", "id": 1117441208, "nodes": [10220116755, 10220116756, 10220116757, 10220116758, 10220116755], "tags": {"building": "yes", "shop": "convenience"}}, {"type": "way", "id": 1132419377, "nodes": [10559137636, 10559137637, 10559137638, 10559137639, 10559137640, 10559137641, 10559137636], "tags": {"building": "yes", "name": "The West End Mall", "shop": "mall"}}]}